STARLINK-36338          
1 67704U 26025M   26050.50003471 -.01732552  83186-3 -53586-2 0  9997
2 67704  97.2743 161.1180 0001198  82.9164 236.4795 15.91806476  2976
STARLINK-36316          
1 67705U 26025N   26050.50003471 -.01723807  82901-3 -51716-2 0  9998
2 67705  97.2736 161.1241 0001333  66.1604 267.5312 15.92397934  2976
STARLINK-36707          
1 67706U 26025P   26050.50003471 -.01715261  82397-3 -50641-2 0  9999
2 67706  97.2731 161.1272 0001366  73.3467 267.7829 15.92706994  2761
STARLINK-36645          
1 67707U 26025Q   26050.50003471 -.01726039  82890-3 -52458-2 0  9991
2 67707  97.2736 161.1208 0001310  71.9470 255.6402 15.92146726  2532
STARLINK-36287          
1 67708U 26025R   26050.50003471 -.01703352  81553-3 -49608-2 0  9993
2 67708  97.2726 161.1293 0001310  66.1309 281.4276 15.92968942  3082
STARLINK-36698          
1 67709U 26025S   26050.50003471 -.01676796  80046-3 -46277-2 0  9990
2 67709  97.2719 161.1401 0001193  64.4877 307.5160 15.93996118  2927
STARLINK-36344          
1 67710U 26025T   26050.50003471 -.01681885  79970-3 -47997-2 0  9991
2 67710  97.2724 161.1335 0001232  64.2320 292.6831 15.93357413  3082
STARLINK-36687          
1 67711U 26025U   26050.50003471 -.01699134  81761-3 -47723-2 0  9996
2 67711  97.2721 161.1365 0001300  58.9965 304.9704 15.93664381  3085
STARLINK-36705          
1 67712U 26025V   26050.50003471 -.01673885  80086-3 -45333-2 0  9996
2 67712  97.2715 161.1429 0001453  57.7056 322.6587 15.94353938  2985
STARLINK-36708          
1 67713U 26025W   26050.50003471 -.01662190  79749-3 -43046-2 0  9997
2 67713  97.2720 161.1517 0001349  61.3924 338.8993 15.95196968  2988
STARLINK-36702          
1 67714U 26025X   26050.50003471 -.01661332  79458-3 -43614-2 0  9993
2 67714  97.2717 161.1490 0001386  56.7081 337.5677 15.94940678  2718
STARLINK-36718          
1 67715U 26025Y   26050.50003471 -.01612294  75827-3 -40444-2 0  9991
2 67715  97.2725 161.1582 0001120  59.3582 355.1941 15.95787192  2925
