CCSDS_OMM_VERS = 2.0
CREATION_DATE  = 
ORIGINATOR     = 

OBJECT_NAME    = STARLINK-36338
OBJECT_ID      = 2026-025M
CENTER_NAME    = EARTH
REF_FRAME      = TEME
TIME_SYSTEM    = UTC
MEAN_ELEMENT_THEORY = SGP/SGP4

EPOCH          = 2026-02-19T12:00:02.998944
MEAN_MOTION    = 15.91806476
ECCENTRICITY   = .0001198
INCLINATION    = 97.2743
RA_OF_ASC_NODE = 161.1180
ARG_OF_PERICENTER = 82.9164
MEAN_ANOMALY   = 236.4795

EPHEMERIS_TYPE = 0
CLASSIFICATION_TYPE = U
NORAD_CAT_ID   = 67704
ELEMENT_SET_NO = 999
REV_AT_EPOCH   = 297
BSTAR          = -.53586E-2
MEAN_MOTION_DOT = -.1732552E-1
MEAN_MOTION_DDOT = .83186E-3

CCSDS_OMM_VERS = 2.0
CREATION_DATE  = 
ORIGINATOR     = 

OBJECT_NAME    = STARLINK-36316
OBJECT_ID      = 2026-025N
CENTER_NAME    = EARTH
REF_FRAME      = TEME
TIME_SYSTEM    = UTC
MEAN_ELEMENT_THEORY = SGP/SGP4

EPOCH          = 2026-02-19T12:00:02.998944
MEAN_MOTION    = 15.92397934
ECCENTRICITY   = .0001333
INCLINATION    = 97.2736
RA_OF_ASC_NODE = 161.1241
ARG_OF_PERICENTER = 66.1604
MEAN_ANOMALY   = 267.5312

EPHEMERIS_TYPE = 0
CLASSIFICATION_TYPE = U
NORAD_CAT_ID   = 67705
ELEMENT_SET_NO = 999
REV_AT_EPOCH   = 297
BSTAR          = -.51716E-2
MEAN_MOTION_DOT = -.1723807E-1
MEAN_MOTION_DDOT = .82901E-3

CCSDS_OMM_VERS = 2.0
CREATION_DATE  = 
ORIGINATOR     = 

OBJECT_NAME    = STARLINK-36707
OBJECT_ID      = 2026-025P
CENTER_NAME    = EARTH
REF_FRAME      = TEME
TIME_SYSTEM    = UTC
MEAN_ELEMENT_THEORY = SGP/SGP4

EPOCH          = 2026-02-19T12:00:02.998944
MEAN_MOTION    = 15.92706994
ECCENTRICITY   = .0001366
INCLINATION    = 97.2731
RA_OF_ASC_NODE = 161.1272
ARG_OF_PERICENTER = 73.3467
MEAN_ANOMALY   = 267.7829

EPHEMERIS_TYPE = 0
CLASSIFICATION_TYPE = U
NORAD_CAT_ID   = 67706
ELEMENT_SET_NO = 999
REV_AT_EPOCH   = 276
BSTAR          = -.50641E-2
MEAN_MOTION_DOT = -.1715261E-1
MEAN_MOTION_DDOT = .82397E-3

CCSDS_OMM_VERS = 2.0
CREATION_DATE  = 
ORIGINATOR     = 

OBJECT_NAME    = STARLINK-36645
OBJECT_ID      = 2026-025Q
CENTER_NAME    = EARTH
REF_FRAME      = TEME
TIME_SYSTEM    = UTC
MEAN_ELEMENT_THEORY = SGP/SGP4

EPOCH          = 2026-02-19T12:00:02.998944
MEAN_MOTION    = 15.92146726
ECCENTRICITY   = .000131
INCLINATION    = 97.2736
RA_OF_ASC_NODE = 161.1208
ARG_OF_PERICENTER = 71.9470
MEAN_ANOMALY   = 255.6402

EPHEMERIS_TYPE = 0
CLASSIFICATION_TYPE = U
NORAD_CAT_ID   = 67707
ELEMENT_SET_NO = 999
REV_AT_EPOCH   = 253
BSTAR          = -.52458E-2
MEAN_MOTION_DOT = -.1726039E-1
MEAN_MOTION_DDOT = .8289E-3

CCSDS_OMM_VERS = 2.0
CREATION_DATE  = 
ORIGINATOR     = 

OBJECT_NAME    = STARLINK-36287
OBJECT_ID      = 2026-025R
CENTER_NAME    = EARTH
REF_FRAME      = TEME
TIME_SYSTEM    = UTC
MEAN_ELEMENT_THEORY = SGP/SGP4

EPOCH          = 2026-02-19T12:00:02.998944
MEAN_MOTION    = 15.92968942
ECCENTRICITY   = .000131
INCLINATION    = 97.2726
RA_OF_ASC_NODE = 161.1293
ARG_OF_PERICENTER = 66.1309
MEAN_ANOMALY   = 281.4276

EPHEMERIS_TYPE = 0
CLASSIFICATION_TYPE = U
NORAD_CAT_ID   = 67708
ELEMENT_SET_NO = 999
REV_AT_EPOCH   = 308
BSTAR          = -.49608E-2
MEAN_MOTION_DOT = -.1703352E-1
MEAN_MOTION_DDOT = .81553E-3

CCSDS_OMM_VERS = 2.0
CREATION_DATE  = 
ORIGINATOR     = 

OBJECT_NAME    = STARLINK-36698
OBJECT_ID      = 2026-025S
CENTER_NAME    = EARTH
REF_FRAME      = TEME
TIME_SYSTEM    = UTC
MEAN_ELEMENT_THEORY = SGP/SGP4

EPOCH          = 2026-02-19T12:00:02.998944
MEAN_MOTION    = 15.93996118
ECCENTRICITY   = .0001193
INCLINATION    = 97.2719
RA_OF_ASC_NODE = 161.1401
ARG_OF_PERICENTER = 64.4877
MEAN_ANOMALY   = 307.5160

EPHEMERIS_TYPE = 0
CLASSIFICATION_TYPE = U
NORAD_CAT_ID   = 67709
ELEMENT_SET_NO = 999
REV_AT_EPOCH   = 292
BSTAR          = -.46277E-2
MEAN_MOTION_DOT = -.1676796E-1
MEAN_MOTION_DDOT = .80046E-3

CCSDS_OMM_VERS = 2.0
CREATION_DATE  = 
ORIGINATOR     = 

OBJECT_NAME    = STARLINK-36344
OBJECT_ID      = 2026-025T
CENTER_NAME    = EARTH
REF_FRAME      = TEME
TIME_SYSTEM    = UTC
MEAN_ELEMENT_THEORY = SGP/SGP4

EPOCH          = 2026-02-19T12:00:02.998944
MEAN_MOTION    = 15.93357413
ECCENTRICITY   = .0001232
INCLINATION    = 97.2724
RA_OF_ASC_NODE = 161.1335
ARG_OF_PERICENTER = 64.2320
MEAN_ANOMALY   = 292.6831

EPHEMERIS_TYPE = 0
CLASSIFICATION_TYPE = U
NORAD_CAT_ID   = 67710
ELEMENT_SET_NO = 999
REV_AT_EPOCH   = 308
BSTAR          = -.47997E-2
MEAN_MOTION_DOT = -.1681885E-1
MEAN_MOTION_DDOT = .7997E-3

CCSDS_OMM_VERS = 2.0
CREATION_DATE  = 
ORIGINATOR     = 

OBJECT_NAME    = STARLINK-36687
OBJECT_ID      = 2026-025U
CENTER_NAME    = EARTH
REF_FRAME      = TEME
TIME_SYSTEM    = UTC
MEAN_ELEMENT_THEORY = SGP/SGP4

EPOCH          = 2026-02-19T12:00:02.998944
MEAN_MOTION    = 15.93664381
ECCENTRICITY   = .00013
INCLINATION    = 97.2721
RA_OF_ASC_NODE = 161.1365
ARG_OF_PERICENTER = 58.9965
MEAN_ANOMALY   = 304.9704

EPHEMERIS_TYPE = 0
CLASSIFICATION_TYPE = U
NORAD_CAT_ID   = 67711
ELEMENT_SET_NO = 999
REV_AT_EPOCH   = 308
BSTAR          = -.47723E-2
MEAN_MOTION_DOT = -.1699134E-1
MEAN_MOTION_DDOT = .81761E-3

CCSDS_OMM_VERS = 2.0
CREATION_DATE  = 
ORIGINATOR     = 

OBJECT_NAME    = STARLINK-36705
OBJECT_ID      = 2026-025V
CENTER_NAME    = EARTH
REF_FRAME      = TEME
TIME_SYSTEM    = UTC
MEAN_ELEMENT_THEORY = SGP/SGP4

EPOCH          = 2026-02-19T12:00:02.998944
MEAN_MOTION    = 15.94353938
ECCENTRICITY   = .0001453
INCLINATION    = 97.2715
RA_OF_ASC_NODE = 161.1429
ARG_OF_PERICENTER = 57.7056
MEAN_ANOMALY   = 322.6587

EPHEMERIS_TYPE = 0
CLASSIFICATION_TYPE = U
NORAD_CAT_ID   = 67712
ELEMENT_SET_NO = 999
REV_AT_EPOCH   = 298
BSTAR          = -.45333E-2
MEAN_MOTION_DOT = -.1673885E-1
MEAN_MOTION_DDOT = .80086E-3

CCSDS_OMM_VERS = 2.0
CREATION_DATE  = 
ORIGINATOR     = 

OBJECT_NAME    = STARLINK-36708
OBJECT_ID      = 2026-025W
CENTER_NAME    = EARTH
REF_FRAME      = TEME
TIME_SYSTEM    = UTC
MEAN_ELEMENT_THEORY = SGP/SGP4

EPOCH          = 2026-02-19T12:00:02.998944
MEAN_MOTION    = 15.95196968
ECCENTRICITY   = .0001349
INCLINATION    = 97.2720
RA_OF_ASC_NODE = 161.1517
ARG_OF_PERICENTER = 61.3924
MEAN_ANOMALY   = 338.8993

EPHEMERIS_TYPE = 0
CLASSIFICATION_TYPE = U
NORAD_CAT_ID   = 67713
ELEMENT_SET_NO = 999
REV_AT_EPOCH   = 298
BSTAR          = -.43046E-2
MEAN_MOTION_DOT = -.166219E-1
MEAN_MOTION_DDOT = .79749E-3

CCSDS_OMM_VERS = 2.0
CREATION_DATE  = 
ORIGINATOR     = 

OBJECT_NAME    = STARLINK-36702
OBJECT_ID      = 2026-025X
CENTER_NAME    = EARTH
REF_FRAME      = TEME
TIME_SYSTEM    = UTC
MEAN_ELEMENT_THEORY = SGP/SGP4

EPOCH          = 2026-02-19T12:00:02.998944
MEAN_MOTION    = 15.94940678
ECCENTRICITY   = .0001386
INCLINATION    = 97.2717
RA_OF_ASC_NODE = 161.1490
ARG_OF_PERICENTER = 56.7081
MEAN_ANOMALY   = 337.5677

EPHEMERIS_TYPE = 0
CLASSIFICATION_TYPE = U
NORAD_CAT_ID   = 67714
ELEMENT_SET_NO = 999
REV_AT_EPOCH   = 271
BSTAR          = -.43614E-2
MEAN_MOTION_DOT = -.1661332E-1
MEAN_MOTION_DDOT = .79458E-3

CCSDS_OMM_VERS = 2.0
CREATION_DATE  = 
ORIGINATOR     = 

OBJECT_NAME    = STARLINK-36718
OBJECT_ID      = 2026-025Y
CENTER_NAME    = EARTH
REF_FRAME      = TEME
TIME_SYSTEM    = UTC
MEAN_ELEMENT_THEORY = SGP/SGP4

EPOCH          = 2026-02-19T12:00:02.998944
MEAN_MOTION    = 15.95787192
ECCENTRICITY   = .000112
INCLINATION    = 97.2725
RA_OF_ASC_NODE = 161.1582
ARG_OF_PERICENTER = 59.3582
MEAN_ANOMALY   = 355.1941

EPHEMERIS_TYPE = 0
CLASSIFICATION_TYPE = U
NORAD_CAT_ID   = 67715
ELEMENT_SET_NO = 999
REV_AT_EPOCH   = 292
BSTAR          = -.40444E-2
MEAN_MOTION_DOT = -.1612294E-1
MEAN_MOTION_DDOT = .75827E-3

